0 TITAN 3C TRANSTAGE DEB
1 13958U 65108X   13275.24870486 -.00000017  00000-0  68936-3 0  5892
2 13958 027.1142 327.1005 6813042 003.4087 359.6809 02.69659371 93515
0 TITAN 3C TRANSTAGE DEB
1 13958U 65108X   13281.18155610 -.00000075  00000-0  27206-3 0  5908
2 13958 027.1211 324.6247 6812227 007.5182 359.0861 02.69659131 93670
0 TITAN 3C TRANSTAGE DEB
1 13958U 65108X   13288.22682776 -.00000067  00000-0  24776-3 0  5919
2 13958 027.0983 321.6782 6811686 012.3973 358.4135 02.69659589 93861
0 TITAN 3C TRANSTAGE DEB
1 13958U 65108X   13288.96843740 -.00000059  00000-0  21089-3 0  5926
2 13958 027.0893 321.3404 6811340 012.9564 358.3423 02.69659575 93884
